TOMORROW-S1             
1 60479U 24149M   26068.72470524  .00008620  00000+0  28856-3 0  9996
2 60479  97.3791 149.6044 0001819 207.2040 152.9106 15.31198362 86867
STARLINK-32689          
1 62440U 24251J   26068.88900707  .00024327  00000+0  83064-3 0  9992
2 62440  53.1590 334.0448 0001024  97.3363 262.7754 15.30206137 67986
